STARLINK-31484          
1 59005U 24036H   26068.34573694 -.00001400  00000+0 -35185-4 0  9999
2 59005  53.1600  79.5068 0000064 214.6339 145.4658 15.30188299115274
JINJUSAT-1B             
1 63210U 25052A   26068.66363707  .00019955  00000+0  68430-3 0  9998
2 63210  97.4113 325.4613 0005550  82.1930 277.9941 15.30194857 54866
